0129P         2022 11 30.5031  3.924327  0.084549  307.5013  184.8651    3.4423  20220629  11.0  4.0  129P/Shoemaker-Levy                                      MPEC 2022-K19
0130P         2024 04 14.6548  1.822701  0.461274  246.0783   70.1946    6.0625  20220629  10.0  6.0  130P/McNaught-Hughes                                     MPEC 2022-ED3
0131P         2019 01 25.1820  2.411904  0.344480  179.0413  214.1466    7.3596  20220629  11.0  4.0  131P/Mueller                                             MPC102101
0132P         2021 11 13.1385  1.691892  0.564657  216.3641  173.9954    5.3827  20220629  11.0  6.0  132P/Helin-Roman-Alu                                     MPEC 2022-GA9
0133P         2024 05 10.0255  2.669819  0.156574  131.8986  160.0982    1.3897  20220629  15.4  2.0  133P/Elst-Pizarro                                        MPC 94676
0134P         2030 01 16.4486  2.597753  0.585247   18.8704  202.0552    4.3354  20220629  11.5  4.0  134P/Kowal-Vavrova                                       MPC 89012
0135P         2022 04  7.3633  2.680106  0.294821   22.3247  213.0258    6.0633  20220629   7.0  8.0  135P/Shoemaker-Levy                                      MPEC 2022-L66
0136P         2025 01  2.4685  2.961642  0.293313  225.0174  137.4432    9.4242  20220629  11.0  4.0  136P/Mueller                                             MPEC 2022-K19
0137P         2018 12 14.4227  1.926718  0.573831  141.1077  232.9760    4.8562  20220629  11.0  4.0  137P/Shoemaker-Levy                                      MPEC 2022-K19
0138P         2019 05  3.4911  1.697885  0.531088   95.5544  309.3075   10.0903  20220629  15.0  6.0  138P/Shoemaker-Levy                                      MPEC 2016-U66
0139P         2017 12 10.9016  3.401053  0.247541  165.7261  242.1456    2.3357  20220629   9.5  4.0  139P/Vaisala-Oterma                                      MPEC 2020-HN5
0140P         2015 08  3.8078  1.973186  0.692679  172.7830  343.2320    3.8436  20220629  11.5  6.0  140P/Bowell-Skiff                                        MPEC 2015-E14
0141P         2020 12 16.3889  0.807353  0.735942  153.5775  241.8126   13.9494  20220629  12.0 12.0  141P/Machholz                                            MPEC 2022-K19
0142P         2021 05 12.7071  2.513542  0.497198  173.9844  175.9318   12.2514  20220629   8.5  6.0  142P/Ge-Wang                                             MPEC 2021-Y10
0143P         2018 05  4.7053  2.514892  0.411933  320.3237  245.0891    4.7064  20220629  13.5  2.0  143P/Kowal-Mrkos                                         MPEC 2021-W31
0144P         2024 01 25.6699  1.395622  0.635222  216.3529  243.0436    3.9309  20220629   8.5  8.0  144P/Kushida                                             MPC104795
0145P         2026 01 31.7679  1.894144  0.542112   10.2489   26.7941   11.2789  20220629  13.5  4.0  145P/Shoemaker-Levy                                      MPC108598
0146P         2024 08  5.4172  1.421074  0.647417  316.9985   53.3788   23.1128  20220629  15.0  4.0  146P/Shoemaker-LINEAR                                    MPC100284
0147P         2023 12  5.2181  3.150258  0.219399  348.1226   92.0618    2.3088  20220629  14.0  4.0  147P/Kushida-Muramatsu                                   MPC 75720
0148P         2022 06 13.6803  1.628676  0.549783    8.0303   89.2112    3.6581  20220629  16.0  2.0  148P/Anderson-LINEAR                                     MPEC 2022-CN4
0149P         2018 08 11.2699  2.796728  0.323026   31.0533  144.0639   34.3938  20220629   8.0  8.0  149P/Mueller                                             MPC 75720
0150P         2024 03 12.5301  1.751127  0.548400  245.7450  272.2251   18.5123  20220629  13.5  4.0  150P/LONEOS                                              MPEC 2021-W31
0151P         2015 10 12.7501  2.456023  0.573825  216.0821  143.1574    4.7286  20220629  10.0  6.0  151P/Helin                                               MPEC 2022-K19
0152P         2022 01 13.8045  3.095039  0.308583  163.9697   91.8580    9.8805  20220629  11.5  4.0  152P/Helin-Lawrence                                      MPEC 2022-M88
0153P         2002 03  3.0288  0.520149  0.989688   34.8574   93.3439   28.0179  20220629   9.0  4.0  153P/Ikeya-Zhang                                         MPC 46101
0154P         2024 06 11.5081  1.554942  0.675997   47.8766  343.0380   17.6323  20220629   2.5 12.0  154P/Brewington                                          MPEC 2022-K19
0155P         2019 11 14.9242  1.798569  0.726315   14.5731   97.1791    6.3989  20220629  13.8  4.0  155P/Shoemaker                                           MPEC 2021-F20
0156P         2020 11 18.0093  1.332595  0.615050    0.4585   35.3475   17.2668  20220629  15.5  2.0  156P/Russell-LINEAR                                      MPEC 2022-GA9
0157P         2022 09  9.8400  1.571960  0.556463  155.0549  287.5484   12.4208  20220629  10.0  4.0  157P/Tritton                                             MPEC 2021-W31
0158P         2021 08 21.5231  4.807244  0.077470  182.4179  134.8166    7.7639  20220629   9.0  4.0  158P/Kowal-LINEAR                                        MPEC 2022-L66
0159P         2018 05 22.6085  3.615443  0.382265    4.5578   54.9551   23.4763  20220629  10.0  4.0  159P/LONEOS                                              MPEC 2021-N06
0160P         2019 12  2.6122  1.788807  0.526265   12.7538  333.3604   15.6157  20220629  15.5  2.0  160P/LINEAR                                              MPEC 2022-K19
0161P         2026 11 28.4881  1.272255  0.835202   46.9993    1.5835   95.8021  20220629   8.5  6.0  161P/Hartley-IRAS                                        MPC 75721
0162P         2020 12  7.9368  1.288969  0.583104  357.1696   30.8922   27.5606  20220629  12.0  4.0  162P/SidingSpring                                        MPEC 2022-M21
0163P         2019 08  5.1261  2.062732  0.452237  349.5639  102.0738   12.7120  20220629  14.5  4.0  163P/NEAT                                                MPEC 2021-S45
0164P         2025 05 27.6494  1.679073  0.540647  325.8474   88.2727   16.2639  20220629  11.0  4.0  164P/Christensen                                         MPEC 2021-F20
0165P         2000 05 14.9681  6.859851  0.615773  125.8538    0.8727   15.8943  20220629  11.5  2.0  165P/LINEAR                                              MPC 75721
0166P         2002 05 27.9677  8.503911  0.384416  321.5577   64.3819   15.3789  20220629   5.5  4.0  166P/NEAT                                                MPC 75722
0167P         2001 05  9.8592 11.843126  0.270735  344.7409  295.7018   19.1113  20220629   9.5  2.0  167P/CINEOS                                              MPC 75722
0168P         2019 08  5.8004  1.357089  0.621175   15.0136  355.4519   21.6253  20220629  15.5  4.0  168P/Hergenrother                                        MPC102101
0169P         2022 07  9.6836  0.602827  0.768346  218.0439  176.1068   11.2990  20220629  16.0  2.0  169P/NEAT                                                MPEC 2022-M88
0170P         2023 04 20.6295  2.923278  0.304332  225.5270  142.9232   10.1244  20220629  12.0  4.0  170P/Christensen                                         MPEC 2022-K19
0171P         2025 09 25.8141  1.770535  0.501873  347.0481  101.6893   21.9403  20220629  13.5  4.0  171P/Spahr                                               MPC102102
0172P         2025 11  4.7387  3.352103  0.204817  209.3449   30.8796   11.2258  20220629  13.0  4.0  172P/Yeung                                               MPEC 2022-C56
0173P         2021 12 16.4729  4.216933  0.261198   29.1541  100.3943   16.4908  20220629   7.5  4.0  173P/Mueller                                             MPEC 2022-K19
0174P         2015 04 26.5376  5.825808  0.457302  163.2935  173.1911    4.3438  20220629   9.4  2.0  174P/Echeclus                                            MPC 92985
0175P         2019 10  5.0346  2.121345  0.409378   70.1857  115.3207    5.1026  20220629  14.0  4.0  175P/Hergenrother                                        MPC114608
0176P         2022 11 21.7088  2.580193  0.193451   34.3633  346.0947    0.2334  20220629  15.1  2.0  176P/LINEAR                                              MPC 89015
0177P         2006 09  5.7495  1.093853  0.955294   60.4495  272.0512   31.1806  20220629  15.0  4.0  177P/Barnard                                             MPEC 2020-L06
0178P         2020 07 16.8537  1.880392  0.482335  297.8141  102.8544   11.0873  20220629  14.6  4.0  178P/Hug-Bell                                            MPEC 2021-F20
0179P         2022 05 30.3828  4.117731  0.305862  296.9299  115.5127   19.8982  20220629   2.5  8.0  179P/Jedicke                                             MPEC 2022-C56
0180P         2023 07 12.3995  2.500468  0.353104   94.7149   84.5719   16.8623  20220629  11.0  4.0  180P/NEAT                                                MPC100284
0181P         2022 01  8.7531  1.159903  0.700575  336.2386   35.4019   17.4859  20220629  11.5  4.0  181P/Shoemaker-Levy                                      MPC 89012
0182P         2022 05 12.2436  0.993746  0.663216   54.2356   72.4587   16.2268  20220629  18.0  4.0  182P/LONEOS                                              MPEC 2014-J10
0183P         2017 11 15.9911  4.047698  0.121022  168.5664    3.9747   19.0248  20220629  12.5  2.0  183P/Korlevic-Juric                                      MPEC 2022-K19
0184P         2020 10 26.3197  1.704221  0.551059  186.5154  173.2413    4.5738  20220629  13.5  4.0  184P/Lovas                                               MPEC 2020-W26
0185P         2023 07 12.9313  0.930692  0.699605  181.8804  214.1108   14.0137  20220629  15.0  4.0  185P/Petriew                                             MPC109593
0186P         2019 01 11.8039  4.266047  0.123283  270.5682  326.4942   28.7285  20220629   7.5  4.0  186P/Garradd                                             MPEC 2021-W31
